[{"OBJECT_NAME":"KUIPER-00080","OBJECT_ID":"2025-151M","EPOCH":"2026-03-06T01:54:42.699168","MEAN_MOTION":14.79925904,"ECCENTRICITY":5.903e-5,"INCLINATION":51.9002,"RA_OF_ASC_NODE":316.5346,"ARG_OF_PERICENTER":88.249,"MEAN_ANOMALY":271.854,"EPHEMERIS_TYPE":0,"CLASSIFICATION_TYPE":"U","NORAD_CAT_ID":64827,"ELEMENT_SET_NO":999,"REV_AT_EPOCH":3477,"BSTAR":0.00012295244,"MEAN_MOTION_DOT":7.16e-6,"MEAN_MOTION_DDOT":0},{"OBJECT_NAME":"KUIPER-00082","OBJECT_ID":"2025-151N","EPOCH":"2026-03-07T01:44:06.545472","MEAN_MOTION":14.79929171,"ECCENTRICITY":6.987e-5,"INCLINATION":51.9013,"RA_OF_ASC_NODE":299.6763,"ARG_OF_PERICENTER":107.7462,"MEAN_ANOMALY":252.3577,"EPHEMERIS_TYPE":0,"CLASSIFICATION_TYPE":"U","NORAD_CAT_ID":64828,"ELEMENT_SET_NO":999,"REV_AT_EPOCH":3509,"BSTAR":0.0006103759,"MEAN_MOTION_DOT":4.435e-5,"MEAN_MOTION_DDOT":0},{"OBJECT_NAME":"KUIPER-00083","OBJECT_ID":"2025-151P","EPOCH":"2026-03-07T01:32:30.338592","MEAN_MOTION":14.79921987,"ECCENTRICITY":9.735e-5,"INCLINATION":51.9017,"RA_OF_ASC_NODE":307.202,"ARG_OF_PERICENTER":107.2915,"MEAN_ANOMALY":252.8154,"EPHEMERIS_TYPE":0,"CLASSIFICATION_TYPE":"U","NORAD_CAT_ID":64829,"ELEMENT_SET_NO":999,"REV_AT_EPOCH":3617,"BSTAR":2.7106568e-5,"MEAN_MOTION_DOT":-1.5e-7,"MEAN_MOTION_DDOT":0},{"OBJECT_NAME":"KUIPER-00084","OBJECT_ID":"2025-151Q","EPOCH":"2026-03-05T21:44:01.982400","MEAN_MOTION":14.79806868,"ECCENTRICITY":0.00016808,"INCLINATION":51.9041,"RA_OF_ASC_NODE":322.3095,"ARG_OF_PERICENTER":189.6821,"MEAN_ANOMALY":170.4109,"EPHEMERIS_TYPE":0,"CLASSIFICATION_TYPE":"U","NORAD_CAT_ID":64830,"ELEMENT_SET_NO":999,"REV_AT_EPOCH":3467,"BSTAR":0.00078190832,"MEAN_MOTION_DOT":5.727e-5,"MEAN_MOTION_DDOT":0},{"OBJECT_NAME":"KUIPER-00085","OBJECT_ID":"2025-151R","EPOCH":"2026-03-07T00:55:33.194496","MEAN_MOTION":14.79927134,"ECCENTRICITY":7.907e-5,"INCLINATION":51.9025,"RA_OF_ASC_NODE":299.8526,"ARG_OF_PERICENTER":93.4795,"MEAN_ANOMALY":266.6258,"EPHEMERIS_TYPE":0,"CLASSIFICATION_TYPE":"U","NORAD_CAT_ID":64831,"ELEMENT_SET_NO":999,"REV_AT_EPOCH":3508,"BSTAR":0.00062969138,"MEAN_MOTION_DOT":4.582e-5,"MEAN_MOTION_DDOT":0},{"OBJECT_NAME":"KUIPER-00086","OBJECT_ID":"2025-151S","EPOCH":"2026-03-07T00:40:00.816672","MEAN_MOTION":14.7992528,"ECCENTRICITY":8.628e-5,"INCLINATION":51.9008,"RA_OF_ASC_NODE":309.8707,"ARG_OF_PERICENTER":81.8852,"MEAN_ANOMALY":278.2208,"EPHEMERIS_TYPE":0,"CLASSIFICATION_TYPE":"U","NORAD_CAT_ID":64832,"ELEMENT_SET_NO":999,"REV_AT_EPOCH":3494,"BSTAR":0.00058774572,"MEAN_MOTION_DOT":4.261e-5,"MEAN_MOTION_DDOT":0},{"OBJECT_NAME":"KUIPER-00087","OBJECT_ID":"2025-151T","EPOCH":"2026-03-07T02:44:25.563264","MEAN_MOTION":14.79947639,"ECCENTRICITY":6.607e-5,"INCLINATION":51.8972,"RA_OF_ASC_NODE":291.9708,"ARG_OF_PERICENTER":64.16,"MEAN_ANOMALY":295.943,"EPHEMERIS_TYPE":0,"CLASSIFICATION_TYPE":"U","NORAD_CAT_ID":64833,"ELEMENT_SET_NO":999,"REV_AT_EPOCH":3519,"BSTAR":-0.0012409853,"MEAN_MOTION_DOT":-9.671e-5,"MEAN_MOTION_DDOT":0},{"OBJECT_NAME":"KUIPER-00089","OBJECT_ID":"2025-151U","EPOCH":"2026-03-07T00:57:43.955712","MEAN_MOTION":14.79777914,"ECCENTRICITY":7.995e-5,"INCLINATION":51.8996,"RA_OF_ASC_NODE":297.296,"ARG_OF_PERICENTER":72.6744,"MEAN_ANOMALY":287.4306,"EPHEMERIS_TYPE":0,"CLASSIFICATION_TYPE":"U","NORAD_CAT_ID":64834,"ELEMENT_SET_NO":999,"REV_AT_EPOCH":3512,"BSTAR":0.00060868739,"MEAN_MOTION_DOT":4.405e-5,"MEAN_MOTION_DDOT":0},{"OBJECT_NAME":"KUIPER-00090","OBJECT_ID":"2025-151V","EPOCH":"2026-03-06T23:33:50.404896","MEAN_MOTION":14.79930749,"ECCENTRICITY":7.403e-5,"INCLINATION":51.8973,"RA_OF_ASC_NODE":290.0962,"ARG_OF_PERICENTER":104.2579,"MEAN_ANOMALY":255.8466,"EPHEMERIS_TYPE":0,"CLASSIFICATION_TYPE":"U","NORAD_CAT_ID":64835,"ELEMENT_SET_NO":999,"REV_AT_EPOCH":3521,"BSTAR":0.00016848065,"MEAN_MOTION_DOT":1.063e-5,"MEAN_MOTION_DDOT":0},{"OBJECT_NAME":"KUIPER-00091","OBJECT_ID":"2025-151W","EPOCH":"2026-03-07T01:04:20.523936","MEAN_MOTION":14.79841433,"ECCENTRICITY":0.00010676,"INCLINATION":51.8998,"RA_OF_ASC_NODE":294.8024,"ARG_OF_PERICENTER":112.3575,"MEAN_ANOMALY":247.75,"EPHEMERIS_TYPE":0,"CLASSIFICATION_TYPE":"U","NORAD_CAT_ID":64836,"ELEMENT_SET_NO":999,"REV_AT_EPOCH":3515,"BSTAR":0.00057855894,"MEAN_MOTION_DOT":4.183e-5,"MEAN_MOTION_DDOT":0},{"OBJECT_NAME":"KUIPER-00092","OBJECT_ID":"2025-151X","EPOCH":"2026-03-07T00:51:37.955808","MEAN_MOTION":14.79911141,"ECCENTRICITY":8.524e-5,"INCLINATION":51.9011,"RA_OF_ASC_NODE":302.332,"ARG_OF_PERICENTER":108.9584,"MEAN_ANOMALY":251.1471,"EPHEMERIS_TYPE":0,"CLASSIFICATION_TYPE":"U","NORAD_CAT_ID":64837,"ELEMENT_SET_NO":999,"REV_AT_EPOCH":3626,"BSTAR":8.9961494e-5,"MEAN_MOTION_DOT":4.64e-6,"MEAN_MOTION_DDOT":0},{"OBJECT_NAME":"KUIPER-00093","OBJECT_ID":"2025-151Y","EPOCH":"2026-03-07T00:47:23.645184","MEAN_MOTION":14.79919203,"ECCENTRICITY":3.846e-5,"INCLINATION":51.9014,"RA_OF_ASC_NODE":304.8246,"ARG_OF_PERICENTER":249.5643,"MEAN_ANOMALY":110.5278,"EPHEMERIS_TYPE":0,"CLASSIFICATION_TYPE":"U","NORAD_CAT_ID":64838,"ELEMENT_SET_NO":999,"REV_AT_EPOCH":3501,"BSTAR":-0.002349247,"MEAN_MOTION_DOT":-0.00018076,"MEAN_MOTION_DDOT":0},{"OBJECT_NAME":"KUIPER-00094","OBJECT_ID":"2025-151Z","EPOCH":"2026-03-06T23:43:06.686112","MEAN_MOTION":15.04268689,"ECCENTRICITY":0.00047281,"INCLINATION":51.8861,"RA_OF_ASC_NODE":274.7809,"ARG_OF_PERICENTER":281.1616,"MEAN_ANOMALY":78.8825,"EPHEMERIS_TYPE":0,"CLASSIFICATION_TYPE":"U","NORAD_CAT_ID":64839,"ELEMENT_SET_NO":999,"REV_AT_EPOCH":3543,"BSTAR":0.00071442726,"MEAN_MOTION_DOT":9.794e-5,"MEAN_MOTION_DDOT":0},{"OBJECT_NAME":"KUIPER-00081","OBJECT_ID":"2025-171A","EPOCH":"2026-03-07T06:58:54.121152","MEAN_MOTION":14.79872175,"ECCENTRICITY":2.371e-5,"INCLINATION":51.8992,"RA_OF_ASC_NODE":158.681,"ARG_OF_PERICENTER":63.325,"MEAN_ANOMALY":296.7736,"EPHEMERIS_TYPE":0,"CLASSIFICATION_TYPE":"U","NORAD_CAT_ID":65132,"ELEMENT_SET_NO":999,"REV_AT_EPOCH":3268,"BSTAR":0.00095104483,"MEAN_MOTION_DOT":7.026e-5,"MEAN_MOTION_DDOT":0},{"OBJECT_NAME":"KUIPER-00088","OBJECT_ID":"2025-171B","EPOCH":"2026-03-07T06:00:00.999648","MEAN_MOTION":14.77481704,"ECCENTRICITY":0.00011817,"INCLINATION":51.8988,"RA_OF_ASC_NODE":176.3271,"ARG_OF_PERICENTER":190.9817,"MEAN_ANOMALY":73.1076,"EPHEMERIS_TYPE":0,"CLASSIFICATION_TYPE":"U","NORAD_CAT_ID":65133,"ELEMENT_SET_NO":999,"REV_AT_EPOCH":546,"BSTAR":0.0087231387,"MEAN_MOTION_DOT":0.00063129,"MEAN_MOTION_DDOT":0},{"OBJECT_NAME":"KUIPER-00095","OBJECT_ID":"2025-171C","EPOCH":"2026-03-07T06:00:00.999648","MEAN_MOTION":14.83321312,"ECCENTRICITY":0.00013422,"INCLINATION":51.896,"RA_OF_ASC_NODE":156.5278,"ARG_OF_PERICENTER":136.1785,"MEAN_ANOMALY":305.2912,"EPHEMERIS_TYPE":0,"CLASSIFICATION_TYPE":"U","NORAD_CAT_ID":65134,"ELEMENT_SET_NO":999,"REV_AT_EPOCH":130,"BSTAR":0.0026530111,"MEAN_MOTION_DOT":0.0002178,"MEAN_MOTION_DDOT":0},{"OBJECT_NAME":"KUIPER-00096","OBJECT_ID":"2025-171D","EPOCH":"2026-03-07T07:31:56.648640","MEAN_MOTION":14.79924639,"ECCENTRICITY":2.944e-5,"INCLINATION":51.8977,"RA_OF_ASC_NODE":168.5882,"ARG_OF_PERICENTER":93.3988,"MEAN_ANOMALY":266.7008,"EPHEMERIS_TYPE":0,"CLASSIFICATION_TYPE":"U","NORAD_CAT_ID":65135,"ELEMENT_SET_NO":999,"REV_AT_EPOCH":3254,"BSTAR":0.00029941287,"MEAN_MOTION_DOT":2.062e-5,"MEAN_MOTION_DDOT":0}]
