KUIPER-00080            
1 64827U 25151M   26065.07966087  .00000716  00000+0  12295-3 0  9998
2 64827  51.9002 316.5346 0000590  88.2490 271.8540 14.79925904 34777
KUIPER-00082            
1 64828U 25151N   26066.07229798  .00004435  00000+0  61038-3 0  9992
2 64828  51.9013 299.6763 0000698 107.7462 252.3577 14.79929171 35099
KUIPER-00083            
1 64829U 25151P   26066.06424003 -.00000015  00000+0  27107-4 0  9999
2 64829  51.9017 307.2020 0000973 107.2915 252.8154 14.79921987 36173
KUIPER-00084            
1 64830U 25151Q   26064.90557850  .00005727  00000+0  78191-3 0  9991
2 64830  51.9041 322.3095 0001680 189.6821 170.4109 14.79806868 34676
KUIPER-00085            
1 64831U 25151R   26066.03857864  .00004582  00000+0  62969-3 0  9990
2 64831  51.9025 299.8526 0000790  93.4795 266.6258 14.79927134 35088
KUIPER-00086            
1 64832U 25151S   26066.02778723  .00004261  00000+0  58775-3 0  9990
2 64832  51.9008 309.8707 0000862  81.8852 278.2208 14.79925280 34946
KUIPER-00087            
1 64833U 25151T   26066.11418476 -.00009671  00000+0 -12410-2 0  9994
2 64833  51.8972 291.9708 0000660  64.1600 295.9430 14.79947639 35192
KUIPER-00089            
1 64834U 25151U   26066.04009208  .00004405  00000+0  60869-3 0  9996
2 64834  51.8996 297.2960 0000799  72.6744 287.4306 14.79777914 35122
KUIPER-00090            
1 64835U 25151V   26065.98183339  .00001063  00000+0  16848-3 0  9992
2 64835  51.8973 290.0962 0000740 104.2579 255.8466 14.79930749 35218
KUIPER-00091            
1 64836U 25151W   26066.04468199  .00004183  00000+0  57856-3 0  9991
2 64836  51.8998 294.8024 0001067 112.3575 247.7500 14.79841433 35159
KUIPER-00092            
1 64837U 25151X   26066.03585597  .00000464  00000+0  89961-4 0  9994
2 64837  51.9011 302.3320 0000852 108.9584 251.1471 14.79911141 36266
KUIPER-00093            
1 64838U 25151Y   26066.03291256 -.00018076  00000+0 -23492-2 0  9996
2 64838  51.9014 304.8246 0000384 249.5643 110.5278 14.79919203 35014
KUIPER-00094            
1 64839U 25151Z   26065.98827183  .00009794  00000+0  71443-3 0  9999
2 64839  51.8861 274.7809 0004728 281.1616  78.8825 15.04268689 35436
KUIPER-00081            
1 65132U 25171A   26066.29090418  .00007026  00000+0  95104-3 0  9992
2 65132  51.8992 158.6810 0000237  63.3250 296.7736 14.79872175 32683
KUIPER-00088            
1 65133U 25171B   26066.25001157  .00063129  00000+0  87231-2 0  9998
2 65133  51.8988 176.3271 0001181 190.9817  73.1076 14.77481704  5464
KUIPER-00095            
1 65134U 25171C   26066.25001157  .00021780  00000+0  26530-2 0  9991
2 65134  51.8960 156.5278 0001342 136.1785 305.2912 14.83321312  1309
KUIPER-00096            
1 65135U 25171D   26066.31385010  .00002062  00000+0  29941-3 0  9994
2 65135  51.8977 168.5882 0000294  93.3988 266.7008 14.79924639 32549
